{"type":"FeatureCollection","features":[{"type": "Feature", "id": "aFcdlsPK7SccfaX24iWymFZVfxw=", "properties": {"ref": "8a646cad491847738198b40ec4b84d75", "@spider": "klubfox", "addr:full": "Shop No.20, Stadium Market,Gondia", "phones": {"Store": []}, "email": {"Customer Service": []}, "operatingHours": {"Store": []}, "brand": "Klub Fox", "chain_id": 34167, "chain_name": "Klub Fox"}},
{"type": "Feature", "id": "ZS6wCBOTvyJAnjdi2Mo4zBD37To=", "properties": {"ref": "33e493fb59194e46965956d10d3752f1", "@spider": "klubfox", "addr:full": "MAHUWALA COMPLEX,A B ROAD,NEAR HOTEL UTSAV,GUNA,\nMADHYA PRADESH-473001,TEL:-07542408802", "phones": {"Store": []}, "email": {"Customer Service": []}, "operatingHours": {"Store": []}, "brand": "Klub Fox", "chain_id": 34167, "chain_name": "Klub Fox"}},
{"type": "Feature", "id": "2awGfa49TytaX8r3oFygSVzDa2U=", "properties": {"ref": "41fbacf699164289b30e93278e133088", "@spider": "klubfox", "addr:full": "SHOP NO 9, CHAMPA BAGH NAI SADAK Gwalior", "phones": {"Store": []}, "email": {"Customer Service": []}, "operatingHours": {"Store": []}, "brand": "Klub Fox", "chain_id": 34167, "chain_name": "Klub Fox"}},
{"type": "Feature", "id": "-6lZTqHfaYn40e7D5bqYvnfNdhQ=", "properties": {"ref": "e21a1f03ae5246b6933040349d68c266", "@spider": "klubfox", "addr:full": "DINDAYAL CITYMALL SHOP -F-17 M.L.B.ROAD,GWALIOR\nMOBILE NO:-0751-4031849", "phones": {"Store": []}, "email": {"Customer Service": []}, "operatingHours": {"Store": []}, "brand": "Klub Fox", "chain_id": 34167, "chain_name": "Klub Fox"}},
{"type": "Feature", "id": "AwM4a1ZrSmePV2wDYCnRzEvv3oI=", "properties": {"ref": "14235f2b57a14f92a90fff7a2557145a", "@spider": "klubfox", "addr:full": "HDFC BANK, CITY CENTER  GWALIOR", "phones": {"Store": []}, "email": {"Customer Service": []}, "operatingHours": {"Store": []}, "brand": "Klub Fox", "chain_id": 34167, "chain_name": "Klub Fox"}},
{"type": "Feature", "id": "0kqU2PY8BmdB27pHHlw471OeajQ=", "properties": {"ref": "7ae6de818dde4cf2ae33eda1843d3662", "@spider": "klubfox", "addr:full": "SHOP NO 7 GANGA NAGAR ROAD NEAR HOTEL SAMRAT HANUMANGARH JN RAJASTHAN MOB:-8005602181", "phones": {"Store": []}, "email": {"Customer Service": []}, "operatingHours": {"Store": []}, "brand": "Klub Fox", "chain_id": 34167, "chain_name": "Klub Fox"}},
{"type": "Feature", "id": "qqtIDvaY7wXw2p_k2tgIyEE24ak=", "properties": {"ref": "e246bda5d6ce48328317884ebbc6b319", "@spider": "klubfox", "addr:full": "MAIN ROAD SANJAY WARD Harda", "phones": {"Store": []}, "email": {"Customer Service": []}, "operatingHours": {"Store": []}, "brand": "Klub Fox", "chain_id": 34167, "chain_name": "Klub Fox"}},
{"type": "Feature", "id": "ohy3_R75RhJ9gUbGRwZTqdxQm64=", "properties": {"ref": "51ef3cd7aa654aeaa3e509011c70ebe1", "@spider": "klubfox", "addr:full": "SCF-86,RAJGURU MARKET,HISAR,HARYANA\nMOBILE NO:-9138000024", "phones": {"Store": []}, "email": {"Customer Service": []}, "operatingHours": {"Store": []}, "brand": "Klub Fox", "chain_id": 34167, "chain_name": "Klub Fox"}},
{"type": "Feature", "id": "gR4krnGhxTWf7sBhw_B9R7YkcKE=", "properties": {"ref": "3527c34ef94c4e88b4ccd669ac22632c", "@spider": "klubfox", "addr:full": "R-3,GROUND FLOOR,CITY CENTER,570 M.G.ROAD,OPP-HIGH COURT, INDORE 07314049525", "phones": {"Store": []}, "email": {"Customer Service": []}, "operatingHours": {"Store": []}, "brand": "Klub Fox", "chain_id": 34167, "chain_name": "Klub Fox"}},
{"type": "Feature", "id": "keKBacDc7DNog26mJa16aPe0HmE=", "properties": {"ref": "0beda863865e4b45be1b74af14d11467", "@spider": "klubfox", "addr:full": "G-6, B.M.TOWER, opp. Lotus,SAPNA SANGITA ROAD,INDORE", "phones": {"Store": []}, "email": {"Customer Service": []}, "operatingHours": {"Store": []}, "brand": "Klub Fox", "chain_id": 34167, "chain_name": "Klub Fox"}},
{"type": "Feature", "id": "3SPxxMjFi8Pv06p-HLJix5_ZNaA=", "properties": {"ref": "34f4aa2dd2844784842e64e9abd47051", "@spider": "klubfox", "addr:full": "SHOP NO 3,ROUNAK COMPLEX,MAIN ROAD,GORAKHPUR,JABALPUR,\nMADHYA PRADESH:-482001,MOBILE NO:-9200192001", "phones": {"Store": []}, "email": {"Customer Service": []}, "operatingHours": {"Store": []}, "brand": "Klub Fox", "chain_id": 34167, "chain_name": "Klub Fox"}},
{"type": "Feature", "id": "b2fs8Fax6j6gQ2BFy_rpcWlxoy0=", "properties": {"ref": "eab49186f73f48f7b34c7407d4c53f90", "@spider": "klubfox", "addr:full": "42,MAIN ROAD GANJIPURA JABALPUR", "phones": {"Store": []}, "email": {"Customer Service": []}, "operatingHours": {"Store": []}, "brand": "Klub Fox", "chain_id": 34167, "chain_name": "Klub Fox"}},
{"type": "Feature", "id": "qsuLjc5jZdS8y_ephNF7VuA1bOU=", "properties": {"ref": "e560605766074cab94fd36780009a4f9", "@spider": "klubfox", "addr:full": "Shop No. UGF-11, Samdareeya Mall,Civic Center, Jabalpur\nMobile No:-0761-4041112", "phones": {"Store": []}, "email": {"Customer Service": []}, "operatingHours": {"Store": []}, "brand": "Klub Fox", "chain_id": 34167, "chain_name": "Klub Fox"}},
{"type": "Feature", "id": "KCla1dUzVHFsOn9uxw7vc5EtUo0=", "properties": {"ref": "a551bc25fd3b46388b4fe63f16d1264d", "@spider": "klubfox", "addr:full": "B-2 PRESTIGE TOWER NEAR AMRAPALI CIRCLE VAISHALI NAGAR JAIPUR RAJASTHAN", "phones": {"Store": []}, "email": {"Customer Service": []}, "operatingHours": {"Store": []}, "brand": "Klub Fox", "chain_id": 34167, "chain_name": "Klub Fox"}},
{"type": "Feature", "id": "0h1hec_PR6iZyZDT0PLP2pxRems=", "properties": {"ref": "6c5882f3c8834aee87696a63995bf915", "@spider": "klubfox", "addr:full": "G-18 CRYSTAL COURT,MALVIYA NAGAR,JAIPUR,RAJ, M:-6377742781", "phones": {"Store": []}, "email": {"Customer Service": []}, "operatingHours": {"Store": []}, "brand": "Klub Fox", "chain_id": 34167, "chain_name": "Klub Fox"}},
{"type": "Feature", "id": "IYURkqFHR3TuMNws6AvUVG3dtlo=", "properties": {"ref": "dc097a66b8444d7cb4f1a660b8da8e5c", "@spider": "klubfox", "addr:full": "GF-3-A,JAIPUR TEXTILE MARKET,MODEL TOWN,MALIVYA NAGAR,JAGATPURA,JAIPUR", "phones": {"Store": []}, "email": {"Customer Service": []}, "operatingHours": {"Store": []}, "brand": "Klub Fox", "chain_id": 34167, "chain_name": "Klub Fox"}},
{"type": "Feature", "id": "ie-KSSTrqEr4wh8ObFSLlPB6leA=", "properties": {"ref": "96b3273666764c37920de79030a358d8", "@spider": "klubfox", "addr:full": "84/254 MADHYAM MARG MANSAROVAR JAIPUR", "phones": {"Store": []}, "email": {"Customer Service": []}, "operatingHours": {"Store": []}, "brand": "Klub Fox", "chain_id": 34167, "chain_name": "Klub Fox"}},
{"type": "Feature", "id": "0yLXiKjtemeVnmQD_tLZW47sh5k=", "properties": {"ref": "e0e163110cba44138482dd36f4a8a6c5", "@spider": "klubfox", "addr:full": "SHOP NO G-11,KRYSTAL BUSINESS CENTER.MAMA CHOWK,BUS STAND ROAD,\nJALNA-431203", "phones": {"Store": []}, "email": {"Customer Service": []}, "operatingHours": {"Store": []}, "brand": "Klub Fox", "chain_id": 34167, "chain_name": "Klub Fox"}},
{"type": "Feature", "id": "olztS5agb0ZciJoM5HOIacT5QS8=", "properties": {"ref": "e22a0539678b4791b471d7a773057f17", "@spider": "klubfox", "addr:full": "SADAR BAZAR  ,JHANSI\nMOBILE NO:-07619082888 / 7985483095", "phones": {"Store": []}, "email": {"Customer Service": []}, "operatingHours": {"Store": []}, "brand": "Klub Fox", "chain_id": 34167, "chain_name": "Klub Fox"}},
{"type": "Feature", "id": "Vqd2NiQrV_mk3vud-2nu9_viXZ4=", "properties": {"ref": "ceb6b73f3e8146d48bf023a09b1bd991", "@spider": "klubfox", "addr:full": "INFRONT OF GUJRATI SCHOOL, JHANDA CHOWK, MAIN ROAD, JHARSUGUDA, ODISHA", "phones": {"Store": []}, "email": {"Customer Service": []}, "operatingHours": {"Store": []}, "brand": "Klub Fox", "chain_id": 34167, "chain_name": "Klub Fox"}},
{"type": "Feature", "id": "_B7-xGQTkFNEIC16v1oeYfIYcDw=", "properties": {"ref": "e4f61ddeddeb4709a1f0ee21158d95fd", "@spider": "klubfox", "addr:full": "NEAR G. B. MODI SCHOOL,SHAH MARKET,Jhunjhunu", "phones": {"Store": []}, "email": {"Customer Service": []}, "operatingHours": {"Store": []}, "brand": "Klub Fox", "chain_id": 34167, "chain_name": "Klub Fox"}},
{"type": "Feature", "id": "R2XRfXzd0wIfnas7zGE4WeeOb20=", "properties": {"ref": "d08ddae963674e72a6040302e4f8f2bd", "@spider": "klubfox", "addr:full": "G8,PADMA CITY MALL KAITHAL HARYANA\nMOBILE NO:-8572025989", "phones": {"Store": []}, "email": {"Customer Service": []}, "operatingHours": {"Store": []}, "brand": "Klub Fox", "chain_id": 34167, "chain_name": "Klub Fox"}},
{"type": "Feature", "id": "84yh_Guk6xnTZ8aO5pwYEI0LBp0=", "properties": {"ref": "3b0e18bcd2464c9ea5d7f7b220bd26ea", "@spider": "klubfox", "addr:full": "BUILDING NO 42,SHOP NO.1 SURANA CHAMBER ,Kankroli,Rajasthan", "phones": {"Store": []}, "email": {"Customer Service": []}, "operatingHours": {"Store": []}, "brand": "Klub Fox", "chain_id": 34167, "chain_name": "Klub Fox"}},
{"type": "Feature", "id": "NWstlJcqkBL-Q7fMyvQGtAFGucM=", "properties": {"ref": "b6f6dd2f550c4372a2a6fe6461a7c9f6", "@spider": "klubfox", "addr:full": "INFRONT OF RAJA TRACTOR,SHUBH SHREE  COMPLEX,KARELI\nMOBILE NO:-9977780088/8770010098. 9977473793", "phones": {"Store": []}, "email": {"Customer Service": []}, "operatingHours": {"Store": []}, "brand": "Klub Fox", "chain_id": 34167, "chain_name": "Klub Fox"}},
{"type": "Feature", "id": "NTKEkmjBGkGgODsfYZGq0ZSfvLc=", "properties": {"ref": "5d6071e82b834c75867e3739192f2f3e", "@spider": "klubfox", "addr:full": "Post Tengu market in Front of Ganja Godown Market, Bombay Bazaar,Khandwa\nMobile No:-0733-2223334", "phones": {"Store": []}, "email": {"Customer Service": []}, "operatingHours": {"Store": []}, "brand": "Klub Fox", "chain_id": 34167, "chain_name": "Klub Fox"}},
{"type": "Feature", "id": "AIq_4CuU9i5oiw0rPpy79ZqkteY=", "properties": {"ref": "de634ae9fd1d48ed9d2e8c3fc7015f69", "@spider": "klubfox", "addr:full": "FRONT OF PNB ATM,NAHAR ROAD,DIST:-REWARI ,KOSLI ,HARYANA\nPINCODE:-123302,Mob:-9416214823", "phones": {"Store": []}, "email": {"Customer Service": []}, "operatingHours": {"Store": []}, "brand": "Klub Fox", "chain_id": 34167, "chain_name": "Klub Fox"}},
{"type": "Feature", "id": "sGM7HE-RDhP6IIsIDdOk7KNz_hA=", "properties": {"ref": "910939fb0ff341068ba1415b472f80e4", "@spider": "klubfox", "addr:full": "F-5, 1ST FLOOR, CITY MALL, KOTA, RAJASTHAN", "phones": {"Store": []}, "email": {"Customer Service": []}, "operatingHours": {"Store": []}, "brand": "Klub Fox", "chain_id": 34167, "chain_name": "Klub Fox"}},
{"type": "Feature", "id": "dWdB76E2khsnNJVGrGXUzHhgufk=", "properties": {"ref": "bf19fbf07b0b4587a30d3f1d17e1dc48", "@spider": "klubfox", "addr:full": "OPP NATRAJ CINEMA,SUBHASH CHOWK,LATUR\nMOBILE NO:-9423078487", "phones": {"Store": []}, "email": {"Customer Service": []}, "operatingHours": {"Store": []}, "brand": "Klub Fox", "chain_id": 34167, "chain_name": "Klub Fox"}},
{"type": "Feature", "id": "WKZ4rg52ZoBoqGzGuYQRT7uFhcg=", "properties": {"ref": "2254857d47cc47cd91a5ed7696611b8c", "@spider": "klubfox", "addr:full": "GF2 UDAY PLAZA GOMTI NAGAR PATRAKARPURAM LUCKNOW UTTAR PRADESH PINCODE 226010", "phones": {"Store": []}, "email": {"Customer Service": []}, "operatingHours": {"Store": []}, "brand": "Klub Fox", "chain_id": 34167, "chain_name": "Klub Fox"}},
{"type": "Feature", "id": "hg0FnUdJ0HBGKSp3McMIi2pKDps=", "properties": {"ref": "edaf20959a104005bd2d84a0e43ee0c2", "@spider": "klubfox", "addr:full": "MMB1/137 SEC. B  SBI COLONY, SITAPUR ROAD,YOJN, ALIGANJ,Lucknow", "phones": {"Store": []}, "email": {"Customer Service": []}, "operatingHours": {"Store": []}, "brand": "Klub Fox", "chain_id": 34167, "chain_name": "Klub Fox"}},
{"type": "Feature", "id": "r7OoFic-ufffdmpoI0zGL_eowJg=", "properties": {"ref": "a8ded3c29f394052a33be9114b707743", "@spider": "klubfox", "addr:full": "5/CP-105,SECTOR-5,SHALIMAR MALL INDIRA NAGAR,NEAR BHOOTNATH MARKET,LUCKNOW,UTTARPRADESH", "phones": {"Store": []}, "email": {"Customer Service": []}, "operatingHours": {"Store": []}, "brand": "Klub Fox", "chain_id": 34167, "chain_name": "Klub Fox"}},
{"type": "Feature", "id": "Excm3cvIj6wYpkg9b6pw7owiKzw=", "properties": {"ref": "3117661d4f0f40da945486bf937b0e07", "@spider": "klubfox", "addr:full": "A6 Baijnath Building,Alambagh,Lucknow, Uttar Pradesh", "phones": {"Store": []}, "email": {"Customer Service": []}, "operatingHours": {"Store": []}, "brand": "Klub Fox", "chain_id": 34167, "chain_name": "Klub Fox"}},
{"type": "Feature", "id": "_Y6G9pAhWI6ETmwyK2gLpYmSBqA=", "properties": {"ref": "7a65af63aa404c6ea04472a911df79d0", "@spider": "klubfox", "addr:full": "SHOP NO 1 ARIF CHAMBER KAPOORTHALA LUCKNOW", "phones": {"Store": []}, "email": {"Customer Service": []}, "operatingHours": {"Store": []}, "brand": "Klub Fox", "chain_id": 34167, "chain_name": "Klub Fox"}},
{"type": "Feature", "id": "sVSVbiYCDX22j-JNmU2eToCJJN4=", "properties": {"ref": "c05e69f5a4b2463abe17e0b9385b34db", "@spider": "klubfox", "addr:full": "CHHAJAMANPURA,Mahoba", "phones": {"Store": []}, "email": {"Customer Service": []}, "operatingHours": {"Store": []}, "brand": "Klub Fox", "chain_id": 34167, "chain_name": "Klub Fox"}},
{"type": "Feature", "id": "hl2zOO816nfs6rZl81yvsflFiJs=", "properties": {"ref": "5336787e9bf143b78a03ac2c5a18b7c3", "@spider": "klubfox", "addr:full": "Shop No.1, Chopda Complex,Near SBI Chowk, NH 7,Maihar", "phones": {"Store": []}, "email": {"Customer Service": []}, "operatingHours": {"Store": []}, "brand": "Klub Fox", "chain_id": 34167, "chain_name": "Klub Fox"}},
{"type": "Feature", "id": "HupkJpWccSeSPlxn_sjW-lK80Uw=", "properties": {"ref": "a427e6a6869e4ec68868b70ce9080c05", "@spider": "klubfox", "addr:full": "13,14 , CINEMA ROAD,MALKAPUR", "phones": {"Store": []}, "email": {"Customer Service": []}, "operatingHours": {"Store": []}, "brand": "Klub Fox", "chain_id": 34167, "chain_name": "Klub Fox"}},
{"type": "Feature", "id": "1L1RACrPGGMCDcVFfjLfz8DGqoY=", "properties": {"ref": "9b41470141774a56b1d54312111c46d5", "@spider": "klubfox", "addr:full": "NEAR SAMSUNG SHOWROOM,GANDHI CHOURAHA, Mandsaur\nPH NO.- 07422404106", "phones": {"Store": []}, "email": {"Customer Service": []}, "operatingHours": {"Store": []}, "brand": "Klub Fox", "chain_id": 34167, "chain_name": "Klub Fox"}},
{"type": "Feature", "id": "lX_U82w4qK-lswfYtqVQn4pNQP4=", "properties": {"ref": "3fcfaeb7a10643378eaafa5b22437f43", "@spider": "klubfox", "addr:full": "306,MAIN STREET,OPPOSITE TO NARSINGH MANDIR,MHOW", "phones": {"Store": []}, "email": {"Customer Service": []}, "operatingHours": {"Store": []}, "brand": "Klub Fox", "chain_id": 34167, "chain_name": "Klub Fox"}},
{"type": "Feature", "id": "938hrnP53G2tqqiaohGKKQOMM88=", "properties": {"ref": "37d80cd908664ef794dc100c9d439ab3", "@spider": "klubfox", "addr:full": "SADAR BAZAR, MORAR , GWALIOR. MP.", "phones": {"Store": []}, "email": {"Customer Service": []}, "operatingHours": {"Store": []}, "brand": "Klub Fox", "chain_id": 34167, "chain_name": "Klub Fox"}},
{"type": "Feature", "id": "cmn31Mk_xuR7olnAjv1UxN-GdF0=", "properties": {"ref": "48b413eac48b49ca8c82b9bb7cc67eeb", "@spider": "klubfox", "addr:full": "PATEL WARD,STATION ROAD,MULTAI,DIST-BETUL,MADHYA PRADESH\nPINCODE:-460661\nMOBILE NO:-9098510208/9617518724", "phones": {"Store": []}, "email": {"Customer Service": []}, "operatingHours": {"Store": []}, "brand": "Klub Fox", "chain_id": 34167, "chain_name": "Klub Fox"}},
{"type": "Feature", "id": "a1qJp4Zkhh04aXG6e8kOJlLDvrg=", "properties": {"ref": "e6759fadd8eb4a569f23597ba5f1c7c2", "@spider": "klubfox", "addr:full": "SHOP NO G-32,GROUND FLOOR,IMPRESS MALL,NAGPUR", "phones": {"Store": []}, "email": {"Customer Service": []}, "operatingHours": {"Store": []}, "brand": "Klub Fox", "chain_id": 34167, "chain_name": "Klub Fox"}},
{"type": "Feature", "id": "j1-Rt3J5vZEbPm4F2GDxemClSMA=", "properties": {"ref": "651272b967ad446bbee283437ad118b5", "@spider": "klubfox", "addr:full": "GROUND FLOOR SHOP NO.1 & 28 SANMAN PRESTIGE RAILWAY \nSTATION ROAD, NANDED,PINCODE:-431605\nMOBILE NO:-7875552157", "phones": {"Store": []}, "email": {"Customer Service": []}, "operatingHours": {"Store": []}, "brand": "Klub Fox", "chain_id": 34167, "chain_name": "Klub Fox"}},
{"type": "Feature", "id": "Oyf_sGGakYcd076ClHmaqsQzhR0=", "properties": {"ref": "b02f1d519a874d4cbc36a291f9217c1f", "@spider": "klubfox", "addr:full": "1263, Ahilyadevi Road,Dist- Nandurbar,Maharashtra\nTel No:-02564 222517", "phones": {"Store": []}, "email": {"Customer Service": []}, "operatingHours": {"Store": []}, "brand": "Klub Fox", "chain_id": 34167, "chain_name": "Klub Fox"}},
{"type": "Feature", "id": "aU0fF9vN4iLMJTFfc5HVaDxHLFU=", "properties": {"ref": "bb54aaa7782141218208d0ee678c4b8a", "@spider": "klubfox", "addr:full": "OPP PANCHYAT BHAWAN,NEAR BAJAJ AGENCY,MOHINDER GARH ROAD,NARNAUL,HARYANA", "phones": {"Store": []}, "email": {"Customer Service": []}, "operatingHours": {"Store": []}, "brand": "Klub Fox", "chain_id": 34167, "chain_name": "Klub Fox"}},
{"type": "Feature", "id": "Ftiffk1QkYmXBbh944X9srhumsI=", "properties": {"ref": "e9daa1a2f0ea4f2891ca46720781e6e6", "@spider": "klubfox", "addr:full": "SHOP NO 105,DATTATRAYA DARSHAN APARTMENT OPP BIG BAZAR COLLEGE ROAD NASHIK", "phones": {"Store": []}, "email": {"Customer Service": []}, "operatingHours": {"Store": []}, "brand": "Klub Fox", "chain_id": 34167, "chain_name": "Klub Fox"}},
{"type": "Feature", "id": "vNuZiTL5jWTrzAgrT8HY5Ec6Kww=", "properties": {"ref": "dd8063073ed64e539d22371f34fc9576", "@spider": "klubfox", "addr:full": "Near Ashapur Temple ,navapur Maharashtra", "phones": {"Store": []}, "email": {"Customer Service": []}, "operatingHours": {"Store": []}, "brand": "Klub Fox", "chain_id": 34167, "chain_name": "Klub Fox"}},
{"type": "Feature", "id": "pzE0hIogkLSGEjQ4p3Yh1uJL5VU=", "properties": {"ref": "15dd519f43d24ccaba9d79a5dbb7ea21", "@spider": "klubfox", "addr:full": "Shop no:- 32, Ground Floor,Patel Heritage, Plot no:- 15/17, Sector:- 7 Kharghar, \nNavi Mumbai", "phones": {"Store": []}, "email": {"Customer Service": []}, "operatingHours": {"Store": []}, "brand": "Klub Fox", "chain_id": 34167, "chain_name": "Klub Fox"}},
{"type": "Feature", "id": "sTGSBGy6C58G4tF7Qw-IJN6AhUc=", "properties": {"ref": "27e09861cda64293b407180e38585cc9", "@spider": "klubfox", "addr:full": "Plot No 4,Opp Jaipuria Eye Hospital,Station Road,Teerupati Market,Nawalgarh\nDistrict-Jhunjhunu Rajsthan Pincode No:333042\nMobile No:9784472712", "phones": {"Store": []}, "email": {"Customer Service": []}, "operatingHours": {"Store": []}, "brand": "Klub Fox", "chain_id": 34167, "chain_name": "Klub Fox"}},
{"type": "Feature", "id": "h_PA_0s9AVn-KODfIewwmxoDXEI=", "properties": {"ref": "fbcf4bf1abc74f69b59e6f4ea9b1bf18", "@spider": "klubfox", "addr:full": "9, Patel Plaza, Tagore Marg,Neemuch,Madhya Pradesh", "phones": {"Store": []}, "email": {"Customer Service": []}, "operatingHours": {"Store": []}, "brand": "Klub Fox", "chain_id": 34167, "chain_name": "Klub Fox"}},
{"type": "Feature", "id": "FHjqwxeEqTnpyc1utE4abYVfTz4=", "properties": {"ref": "88152eebcc6547bfaa54cb4f9c2fb8f9", "@spider": "klubfox", "addr:full": "NEEMUCH ROAD,JAWAD DARWAZA, NIMBAHERA,RAJASTHAN", "phones": {"Store": []}, "email": {"Customer Service": []}, "operatingHours": {"Store": []}, "brand": "Klub Fox", "chain_id": 34167, "chain_name": "Klub Fox"}},
{"type": "Feature", "id": "FmVsII-5q7Tl6Mw6lLQssokrJfk=", "properties": {"ref": "c980b3b4da334b9692ae84f531107e39", "@spider": "klubfox", "addr:full": "G-63 shree Arcade, Abu Highway, Nr.Income Tox Office, Palanpur", "phones": {"Store": []}, "email": {"Customer Service": []}, "operatingHours": {"Store": []}, "brand": "Klub Fox", "chain_id": 34167, "chain_name": "Klub Fox"}},
{"type": "Feature", "id": "iBeq8V4d5367gaqipc-M5lKIo-8=", "properties": {"ref": "de7f2b5b059442828e1634514f255a2b", "@spider": "klubfox", "addr:full": "Gopal Ganj, Near Arya Samaj Mandir, Pratapgarh, Rajasthan 312605, Mob:-9413459928", "phones": {"Store": []}, "email": {"Customer Service": []}, "operatingHours": {"Store": []}, "brand": "Klub Fox", "chain_id": 34167, "chain_name": "Klub Fox"}},
{"type": "Feature", "id": "7OHA7xWvpdzttf-bHi_B_28gD8Q=", "properties": {"ref": "5934304093764873a9695fbb38ce1307", "@spider": "klubfox", "addr:full": "SUPER MARKET, SUPER MARKET RAIBAREILLY\nMOBILE NO:-0535-2212412", "phones": {"Store": []}, "email": {"Customer Service": []}, "operatingHours": {"Store": []}, "brand": "Klub Fox", "chain_id": 34167, "chain_name": "Klub Fox"}},
{"type": "Feature", "id": "pCTcjs5ysiQLHfM00TowBHcvu4w=", "properties": {"ref": "1502d2b09199442c9f2ab3e2c50d311c", "@spider": "klubfox", "addr:full": "SHOPPING SQUARE COMPLEX,SHAHID CHOWK GOPI TALKIES ROAD,RAIGARH\nCHHATTISGARH-496001", "phones": {"Store": []}, "email": {"Customer Service": []}, "operatingHours": {"Store": []}, "brand": "Klub Fox", "chain_id": 34167, "chain_name": "Klub Fox"}},
{"type": "Feature", "id": "8K6TmnaPqicm_Q4n5Uo4zY0Ecio=", "properties": {"ref": "2aa130680d644806bf779dce6ac50488", "@spider": "klubfox", "addr:full": "MAIN ROAD,AZAD CHOWK RAIPUR, CHHATTISGARH\nMOBILE NO:-07714088889", "phones": {"Store": []}, "email": {"Customer Service": []}, "operatingHours": {"Store": []}, "brand": "Klub Fox", "chain_id": 34167, "chain_name": "Klub Fox"}},
{"type": "Feature", "id": "yFxtNXGWStTHYaiI4gKYY1j7-kw=", "properties": {"ref": "729b16466af149cabedf2d9de94921aa", "@spider": "klubfox", "addr:full": "Shop no.-FF04,MAGNETO MALL,LABHANDI\nMOBILE NO:-07714066992", "phones": {"Store": []}, "email": {"Customer Service": []}, "operatingHours": {"Store": []}, "brand": "Klub Fox", "chain_id": 34167, "chain_name": "Klub Fox"}},
{"type": "Feature", "id": "p9TSmXJ-a2pa-nUnFu36WmOwr8g=", "properties": {"ref": "95c4e7b287a1457db5d0c26fa7f2ecd2", "@spider": "klubfox", "addr:full": "MALVIYA ROAD,NEAR MADRASI RESTURANT,Raipur,TEL:-07714095758", "phones": {"Store": []}, "email": {"Customer Service": []}, "operatingHours": {"Store": []}, "brand": "Klub Fox", "chain_id": 34167, "chain_name": "Klub Fox"}},
{"type": "Feature", "id": "yQJnD7PQWVCyJqgLyxZrLuWIbHM=", "properties": {"ref": "dcd6ea8a453145a3af7d28482790db4e", "@spider": "klubfox", "addr:full": "SANT KANWAR RAM DHARAMSHALA LAKE NAGAR CHOWK ,Raipur", "phones": {"Store": []}, "email": {"Customer Service": []}, "operatingHours": {"Store": []}, "brand": "Klub Fox", "chain_id": 34167, "chain_name": "Klub Fox"}},
{"type": "Feature", "id": "8K9bWboRFyMbLq1RWeJJx1ox7DU=", "properties": {"ref": "21fee26d19af48d0bf1a038c205fd74e", "@spider": "klubfox", "addr:full": "100FT RD, OPP HDFC BANK, CIVIL LINES ,RAJSAMAND, RAJ, 313326, MOB :-9413472346.", "phones": {"Store": []}, "email": {"Customer Service": []}, "operatingHours": {"Store": []}, "brand": "Klub Fox", "chain_id": 34167, "chain_name": "Klub Fox"}},
{"type": "Feature", "id": "j5z1hG_66FG8woW8FyLMCYK4csM=", "properties": {"ref": "4c281d7cc70749bda5a8b271a0369324", "@spider": "klubfox", "addr:full": "57 STATION ROAD, Ratlam", "phones": {"Store": []}, "email": {"Customer Service": []}, "operatingHours": {"Store": []}, "brand": "Klub Fox", "chain_id": 34167, "chain_name": "Klub Fox"}},
{"type": "Feature", "id": "lCtOoubpknkRfc7ZdbMia1Yo1Ok=", "properties": {"ref": "2d1ab50805da4283b13d441db2a22dce", "@spider": "klubfox", "addr:full": "UPBHOKTA BHANDAR,REWA", "phones": {"Store": []}, "email": {"Customer Service": []}, "operatingHours": {"Store": []}, "brand": "Klub Fox", "chain_id": 34167, "chain_name": "Klub Fox"}},
{"type": "Feature", "id": "6SojLlg8ukQwdeEzPSed7fz36rs=", "properties": {"ref": "cf630ddb3eac438d8137dd65fa35704b", "@spider": "klubfox", "addr:full": "GUJRATI BAZAR,Sagar 9827269141", "phones": {"Store": []}, "email": {"Customer Service": []}, "operatingHours": {"Store": []}, "brand": "Klub Fox", "chain_id": 34167, "chain_name": "Klub Fox"}},
{"type": "Feature", "id": "qu3MWKZkcSovhO9sO-63myNTekQ=", "properties": {"ref": "7f430d0774d74d7082472f3902c07f58", "@spider": "klubfox", "addr:full": "Daal Chauraya,Near mantri tractor showroom,Salumber,Rajasthan\nTEL:-9929806960", "phones": {"Store": []}, "email": {"Customer Service": []}, "operatingHours": {"Store": []}, "brand": "Klub Fox", "chain_id": 34167, "chain_name": "Klub Fox"}},
{"type": "Feature", "id": "x3P8rX2ykBQvuVpmCtrzHoi8Kl8=", "properties": {"ref": "73d491b7519a4436a5697f2557b7821c", "@spider": "klubfox", "addr:full": "Hospital Chowk,Satna.Madhya Pradesh", "phones": {"Store": []}, "email": {"Customer Service": []}, "operatingHours": {"Store": []}, "brand": "Klub Fox", "chain_id": 34167, "chain_name": "Klub Fox"}},
{"type": "Feature", "id": "vUcpy8z6pvUKpL2JnnPZanzn_E0=", "properties": {"ref": "a9d82adc29044367af30cbb109d4237d", "@spider": "klubfox", "addr:full": "SHOP NO. 8 UTTAM CHAND MALOO COMPLEX BAHOBALL CHOWK BARA PATHAR Seoni", "phones": {"Store": []}, "email": {"Customer Service": []}, "operatingHours": {"Store": []}, "brand": "Klub Fox", "chain_id": 34167, "chain_name": "Klub Fox"}},
{"type": "Feature", "id": "U1tBLYJo6eXWrsK0hFrqqeZ1QJA=", "properties": {"ref": "8eeef5233fe94412a886704375b35056", "@spider": "klubfox", "addr:full": "26 SHALA VIKAS MARKET NEW GANDHI CHOWK Shahdol", "phones": {"Store": []}, "email": {"Customer Service": []}, "operatingHours": {"Store": []}, "brand": "Klub Fox", "chain_id": 34167, "chain_name": "Klub Fox"}},
{"type": "Feature", "id": "kh2QQExt4fBxXoQpYeAh8bDYmv0=", "properties": {"ref": "5b6d046ba722452383cb47bfbde70f92", "@spider": "klubfox", "addr:full": "NEAR BANK OF INDIA,NEW ROAD, SHAJAPUR, MADHYA PRADESH", "phones": {"Store": []}, "email": {"Customer Service": []}, "operatingHours": {"Store": []}, "brand": "Klub Fox", "chain_id": 34167, "chain_name": "Klub Fox"}},
{"type": "Feature", "id": "8GsKQ8XXgIr3OwLcEQiEHMAzg5s=", "properties": {"ref": "c5de80fe13d4431f8d2c83808e2769a5", "@spider": "klubfox", "addr:full": "1934,Dr.Ambedkar Road,Near Narmada telecommunication,Shirpur,Dist-Dhule", "phones": {"Store": []}, "email": {"Customer Service": []}, "operatingHours": {"Store": []}, "brand": "Klub Fox", "chain_id": 34167, "chain_name": "Klub Fox"}},
{"type": "Feature", "id": "im853A-rKgOYgLkYaGzcTGFY8ss=", "properties": {"ref": "5a111717e2bd449aacfd6efb99a9cf73", "@spider": "klubfox", "addr:full": "SHOP NO 1,CITY CENTER MALL ,NEAR SBI BANK,STAION ROAD.Sikar", "phones": {"Store": []}, "email": {"Customer Service": []}, "operatingHours": {"Store": []}, "brand": "Klub Fox", "chain_id": 34167, "chain_name": "Klub Fox"}},
{"type": "Feature", "id": "8ll6B0-tBN9ODmLkiXSndBhXcOM=", "properties": {"ref": "1c1bbda982304bfbba9b98aee17f4606", "@spider": "klubfox", "addr:full": "OSHAMA COMPLEX,REGISTRY KACHAHARI ROAD, SIWAN, BIHAR,\nMOBILE NO:-9471284786", "phones": {"Store": []}, "email": {"Customer Service": []}, "operatingHours": {"Store": []}, "brand": "Klub Fox", "chain_id": 34167, "chain_name": "Klub Fox"}},
{"type": "Feature", "id": "g2U_a-jU6ubbPOibFqEUXut1N8U=", "properties": {"ref": "f18aabe1f66f4d99a5a91600372bf811", "@spider": "klubfox", "addr:full": "8515/A/3B Murarji Peth,Sarswati Chowk,Solapur", "phones": {"Store": []}, "email": {"Customer Service": []}, "operatingHours": {"Store": []}, "brand": "Klub Fox", "chain_id": 34167, "chain_name": "Klub Fox"}},
{"type": "Feature", "id": "DOTWGOt2VDmd_UCtLt0zsJJrZS0=", "properties": {"ref": "df6316ec78d44832afc40fafef654233", "@spider": "klubfox", "addr:full": "PLOT NO.13, SUBASH CHOWK,NR. BALOOM HOTEL, Sonipat Haryana", "phones": {"Store": []}, "email": {"Customer Service": []}, "operatingHours": {"Store": []}, "brand": "Klub Fox", "chain_id": 34167, "chain_name": "Klub Fox"}},
{"type": "Feature", "id": "_aBDOK0RJHeuCsXPF2WDKAMByi8=", "properties": {"ref": "7f819282e1324c0aa411c49c463778fb", "@spider": "klubfox", "addr:full": "SWAMI DAYANAND MARG PAHLI GALI NEAR AGRA TIKKI WALA SRIGANGANAGAR \nRAJSTHAN", "phones": {"Store": []}, "email": {"Customer Service": []}, "operatingHours": {"Store": []}, "brand": "Klub Fox", "chain_id": 34167, "chain_name": "Klub Fox"}},
{"type": "Feature", "id": "yHXkKKf_1vs2EeblyZexqRhe5LU=", "properties": {"ref": "bce958bf6c04468bb9904290d208f086", "@spider": "klubfox", "addr:full": "4-5, ASHOK NAGAR MAIN ROAD, NEAR JAIN TEMPLE , UDAIPUR,RAJASTHAN\nMOBILE NO:-9414167495", "phones": {"Store": []}, "email": {"Customer Service": []}, "operatingHours": {"Store": []}, "brand": "Klub Fox", "chain_id": 34167, "chain_name": "Klub Fox"}},
{"type": "Feature", "id": "PI8dTcgwhSxSlArgs4OylAnb82g=", "properties": {"ref": "45a8bb289a6e4cec87c31cee090a1628", "@spider": "klubfox", "addr:full": "36-37, 1ST FLOOR,BAPU BAZAR,Udaipur", "phones": {"Store": []}, "email": {"Customer Service": []}, "operatingHours": {"Store": []}, "brand": "Klub Fox", "chain_id": 34167, "chain_name": "Klub Fox"}},
{"type": "Feature", "id": "9GF-2Lr3BuH8FvGZXSMnSy0_abM=", "properties": {"ref": "bcb45819279d43f6901444588535b8f2", "@spider": "klubfox", "addr:full": "89 BAPU BAZAR NEAR RAYMOND SHOWROOM UDAIPUR RAJSTHAN", "phones": {"Store": []}, "email": {"Customer Service": []}, "operatingHours": {"Store": []}, "brand": "Klub Fox", "chain_id": 34167, "chain_name": "Klub Fox"}},
{"type": "Feature", "id": "W16njbUBNrY0ysnHUgpQBNQFL-Q=", "properties": {"ref": "38454eca6d34423badfc458dc95685dd", "@spider": "klubfox", "addr:full": "1, BHOJ MARG, FREE GUNJ, R. K. PLAZA UJJAIN", "phones": {"Store": []}, "email": {"Customer Service": []}, "operatingHours": {"Store": []}, "brand": "Klub Fox", "chain_id": 34167, "chain_name": "Klub Fox"}},
{"type": "Feature", "id": "yv-LwqYBwEB34qfyBEO0Byjy6rs=", "properties": {"ref": "46ab74dcf4ad4ec4b3187da7176be5ba", "@spider": "klubfox", "addr:full": "RAOPURA, MAIN ROAD, OPP.MACHHIPITH,Vadodara BARODA", "phones": {"Store": []}, "email": {"Customer Service": []}, "operatingHours": {"Store": []}, "brand": "Klub Fox", "chain_id": 34167, "chain_name": "Klub Fox"}},
{"type": "Feature", "id": "SpNKvSCD4V5wCAqbrj6loLC4Jqw=", "properties": {"ref": "efd375f6bc7346579cd29373c40713d8", "@spider": "klubfox", "addr:full": "N/7 1A-2R NEWADA SUNDERPUR OPP PNB BANK(DLW-BHU ROAD) VARANASI UTTAR PRADESH", "phones": {"Store": []}, "email": {"Customer Service": []}, "operatingHours": {"Store": []}, "brand": "Klub Fox", "chain_id": 34167, "chain_name": "Klub Fox"}},
{"type": "Feature", "id": "tuiiKn_odqqViRzC_5v7uUzcg9I=", "properties": {"ref": "e8f38bf625204299bd56760e17c1b5e2", "@spider": "klubfox", "addr:full": "KUMAR SADAN,MAIN ROAD Vidisha", "phones": {"Store": []}, "email": {"Customer Service": []}, "operatingHours": {"Store": []}, "brand": "Klub Fox", "chain_id": 34167, "chain_name": "Klub Fox"}},
{"type": "Feature", "id": "l2bnyYckWSqCrFLDd_EWb817eXo=", "properties": {"ref": "3613fa604ebb49bf92036495a5af091b", "@spider": "klubfox", "addr:full": "TULSI MARG,POST OFFICE,Waidhan", "phones": {"Store": []}, "email": {"Customer Service": []}, "operatingHours": {"Store": []}, "brand": "Klub Fox", "chain_id": 34167, "chain_name": "Klub Fox"}},
{"type": "Feature", "id": "zBMoYmmvmaoAi5paDx4NKqZmUKc=", "properties": {"ref": "2d6addbd408146ffad84466ce0bf4bf8", "@spider": "klubfox", "addr:full": "KATHED OIL MILL CHOWK, WANI DISTT.YAVATMAL MAHARASHTRA", "phones": {"Store": []}, "email": {"Customer Service": []}, "operatingHours": {"Store": []}, "brand": "Klub Fox", "chain_id": 34167, "chain_name": "Klub Fox"}},
{"type": "Feature", "id": "6mgKwacEtbI26dTRrh1w7qHLWzI=", "properties": {"ref": "d646f89c0f6c4eeda59a4433b8828c58", "@spider": "klubfox", "addr:full": "KAPDA LINE, Wardha", "phones": {"Store": []}, "email": {"Customer Service": []}, "operatingHours": {"Store": []}, "brand": "Klub Fox", "chain_id": 34167, "chain_name": "Klub Fox"}},
{"type": "Feature", "id": "A5PLroPA7C2_ollXND00TZw3vGI=", "properties": {"ref": "e75676f3a06446cdbc8928f1a48d17e0", "@spider": "klubfox", "addr:full": "OPP NEHRU PARK,MODEL TOWN YAMUNA NAGAR HARYANA", "phones": {"Store": []}, "email": {"Customer Service": []}, "operatingHours": {"Store": []}, "brand": "Klub Fox", "chain_id": 34167, "chain_name": "Klub Fox"}},
{"type": "Feature", "id": "AcQ4-n_VTXeTljU2tVBU7SQkTQA=", "properties": {"ref": "d1b6872162014d57a46cdcaca0cf07fa", "@spider": "klubfox", "addr:full": "NEW INDIRA GANDHI MARKET, YAVATMAL (MS)", "phones": {"Store": []}, "email": {"Customer Service": []}, "operatingHours": {"Store": []}, "brand": "Klub Fox", "chain_id": 34167, "chain_name": "Klub Fox"}}]}